BEIDOU-2 M4             
1 38251U 12018B   26132.68171406 -.00000040  00000+0  00000+0 0  9991
2 38251  55.6900 305.2883 0010954 282.0858  77.7844  1.86229765 95284
ARIRANG-3 (KOMPSAT-3)   
1 38338U 12025B   26133.47485267  .00000233  00000+0  55605-4 0  9995
2 38338  98.1157  91.5397 0004463 211.4597 148.6338 14.62174481746275
METOP-B                 
1 38771U 12049A   26133.48657593  .00000064  00000+0  49135-4 0  9999
2 38771  98.6527 185.6736 0003528  91.2626 268.8955 14.21422729708333
SJ-9A                   
1 38860U 12056A   26133.47320818  .00000744  00000+0  91952-4 0  9991
2 38860  97.6690 106.6879 0025996  15.2660 344.9334 14.85396616694437
COSMOS 2484 (RODNIK-S 6)
1 39059U 13001C   26133.53379597 -.00000029  00000+0 -28531-3 0  9998
2 39059  82.5016 243.4347 0027551 109.5418 250.8641 12.42938021604250
SARAL                   
1 39086U 13009A   26133.47461735  .00000051  00000+0  34578-4 0  9997
2 39086  98.5561 320.4813 0002597  51.6223 308.5194 14.32847173690639
STRAND-1                
1 39090U 13009E   26133.24487063  .00000173  00000+0  72597-4 0  9997
2 39090  98.3916 314.3410 0008178 343.6635  16.4288 14.37141852692045
BRITE-AUSTRIA           
1 39091U 13009F   26133.45170535  .00000103  00000+0  49498-4 0  9991
2 39091  98.3988 313.7488 0009899 350.9654   9.1353 14.36527680692066
GAOFEN-1                
1 39150U 13018A   26133.50166760  .00000809  00000+0  12311-3 0  9994
2 39150  97.9102 206.2717 0017574  22.6305 337.5676 14.76537790703124
NEE-01 PEGASO           
1 39151U 13018B   26133.36122948  .00001488  00000+0  14717-3 0  9995
2 39151  98.1178 276.3748 0011281 279.5915  80.4029 14.93483981705503
PROBA-V                 
1 39159U 13021A   26133.39838370  .00000041  00000+0  35811-4 0  9996
2 39159  98.3571 113.7266 0003211 222.9029 137.1900 14.23589362676161
ARIRANG-5 (KOMPSAT-5)   
1 39227U 13042A   26133.51513478  .00000923  00000+0  70264-4 0  9998
2 39227  97.6222 320.7025 0002018 240.6021 119.5004 15.04488170698649
GONETS-M 5              
1 39249U 13048A   26133.58178171  .00000085  00000+0  54376-3 0  9996
2 39249  82.4861   4.9589 0015812 291.0845  68.8544 12.42891097574586
GONETS-M 7              
1 39251U 13048C   26133.46487706  .00000151  00000+0  10193-2 0  9995
2 39251  82.4929   7.9354 0016640 292.6017  67.3302 12.42914045574524
FENGYUN 3C              
1 39260U 13052A   26133.48433431  .00000033  00000+0  37671-4 0  9999
2 39260  98.4963 108.9573 0015655 120.7613 239.5106 14.15746599653658
CASSIOPE                
1 39265U 13055A   26133.48851001  .00020994 -63529-6  23898-3 0  9990
2 39265  80.9125 108.7611 0301065 178.7163 181.4919 15.22599154662385
APRIZESAT 7             
1 39416U 13066A   26133.40287564  .00000865  00000+0  91271-4 0  9992
2 39416  97.7689  87.1297 0035035 328.9994  30.9157 14.91481972676049
ZACUBE-1 (TSHEPISOSAT)  
1 39417U 13066B   26133.34344936  .00002785  00000+0  21971-3 0  9995
2 39417  97.8118  95.4912 0041807  10.4134 349.7946 15.00910563675508
APRIZESAT 8             
1 39425U 13066K   26133.36656703  .00000710  00000+0  82774-4 0  9999
2 39425  97.8203  81.3273 0047039  41.9898 318.4909 14.87574645674495
TRITON-1                
1 39427U 13066M   26133.44791708  .00001892  00000+0  23162-3 0  9992
2 39427  97.8265  44.0457 0090118 348.6824  11.2360 14.81549549668948
