OBJECT_NAME,OBJECT_ID,EPOCH,MEAN_MOTION,ECCENTRICITY,INCLINATION,RA_OF_ASC_NODE,ARG_OF_PERICENTER,MEAN_ANOMALY,EPHEMERIS_TYPE,CLASSIFICATION_TYPE,NORAD_CAT_ID,ELEMENT_SET_NO,REV_AT_EPOCH,BSTAR,MEAN_MOTION_DOT,MEAN_MOTION_DDOT
BEIDOU-2 M4,2012-018B,2026-05-12T16:21:40.094784,1.86229765,.00109546,55.6900,305.2883,282.0858,77.7844,0,U,38251,999,9528,0,-.4E-6,0
ARIRANG-3 (KOMPSAT-3),2012-025B,2026-05-13T11:23:47.270688,14.62174481,.0004463,98.1157,91.5397,211.4597,148.6338,0,U,38338,999,74627,.55605E-4,.233E-5,0
METOP-B,2012-049A,2026-05-13T11:40:40.160352,14.21422729,.0003528,98.6527,185.6736,91.2626,268.8955,0,U,38771,999,70833,.49135E-4,.64E-6,0
SJ-9A,2012-056A,2026-05-13T11:21:25.186752,14.85396616,.0025996,97.6690,106.6879,15.2660,344.9334,0,U,38860,999,69443,.91952E-4,.744E-5,0
COSMOS 2484 (RODNIK-S 6),2013-001C,2026-05-13T12:48:39.971808,12.42938021,.0027551,82.5016,243.4347,109.5418,250.8641,0,U,39059,999,60425,-.28531E-3,-.29E-6,0
SARAL,2013-009A,2026-05-13T11:23:26.939040,14.32847173,.0002597,98.5561,320.4813,51.6223,308.5194,0,U,39086,999,69063,.34578E-4,.51E-6,0
STRAND-1,2013-009E,2026-05-13T05:52:36.822432,14.37141852,.0008178,98.3916,314.3410,343.6635,16.4288,0,U,39090,999,69204,.72597E-4,.173E-5,0
BRITE-AUSTRIA,2013-009F,2026-05-13T10:50:27.342240,14.36527680,.0009899,98.3988,313.7488,350.9654,9.1353,0,U,39091,999,69206,.49498E-4,.103E-5,0
GAOFEN-1,2013-018A,2026-05-13T12:02:24.080640,14.76537790,.0017574,97.9102,206.2717,22.6305,337.5676,0,U,39150,999,70312,.12311E-3,.809E-5,0
NEE-01 PEGASO,2013-018B,2026-05-13T08:40:10.227072,14.93483981,.0011281,98.1178,276.3748,279.5915,80.4029,0,U,39151,999,70550,.14717E-3,.1488E-4,0
PROBA-V,2013-021A,2026-05-13T09:33:40.351680,14.23589362,.0003211,98.3571,113.7266,222.9029,137.1900,0,U,39159,999,67616,.35811E-4,.41E-6,0
ARIRANG-5 (KOMPSAT-5),2013-042A,2026-05-13T12:21:47.644992,15.04488170,.0002018,97.6222,320.7025,240.6021,119.5004,0,U,39227,999,69864,.70264E-4,.923E-5,0
GONETS-M 5,2013-048A,2026-05-13T13:57:45.939744,12.42891097,.0015812,82.4861,4.9589,291.0845,68.8544,0,U,39249,999,57458,.54376E-3,.85E-6,0
GONETS-M 7,2013-048C,2026-05-13T11:09:25.377984,12.42914045,.001664,82.4929,7.9354,292.6017,67.3302,0,U,39251,999,57452,.10193E-2,.151E-5,0
FENGYUN 3C,2013-052A,2026-05-13T11:37:26.484384,14.15746599,.0015655,98.4963,108.9573,120.7613,239.5106,0,U,39260,999,65365,.37671E-4,.33E-6,0
CASSIOPE,2013-055A,2026-05-13T11:43:27.264864,15.22599154,.0301065,80.9125,108.7611,178.7163,181.4919,0,U,39265,999,66238,.23898E-3,.20994E-3,-.63529E-6
APRIZESAT 7,2013-066A,2026-05-13T09:40:08.455296,14.91481972,.0035035,97.7689,87.1297,328.9994,30.9157,0,U,39416,999,67604,.91271E-4,.865E-5,0
ZACUBE-1 (TSHEPISOSAT),2013-066B,2026-05-13T08:14:34.024704,15.00910563,.0041807,97.8118,95.4912,10.4134,349.7946,0,U,39417,999,67550,.21971E-3,.2785E-4,0
APRIZESAT 8,2013-066K,2026-05-13T08:47:51.391392,14.87574645,.0047039,97.8203,81.3273,41.9898,318.4909,0,U,39425,999,67449,.82774E-4,.71E-5,0
TRITON-1,2013-066M,2026-05-13T10:45:00.035712,14.81549549,.0090118,97.8265,44.0457,348.6824,11.2360,0,U,39427,999,66894,.23162E-3,.1892E-4,0
